Name First|Phone|Street|Received|State|Name Last|Postal Code|City
Gillian|(944) 785-6401|P.O. Box 584, 730 Imperdiet Rd.|04/29/08|MD|Hart|33353|Bethlehem
Avram|(788) 173-4410|P.O. Box 253, 5702 Phasellus Rd.|11/28/09|DC|Mccarty|51545|Thousand Oaks
Petra|(128) 296-0943|490-9018 Eleifend, Av.|02/09/10|Mississippi|Mcdowell|26541|Quincy
Zelda|(628) 421-2408|791-4570 Orci, St.|12/24/08|ID|Beasley|31833|Merced
Winter|(876) 839-6727|8786 Nec, Ave|12/28/08|TX|Suarez|31143|Michigan City
Keefe|(399) 886-5549|Ap #768-9326 Blandit St.|02/12/10|MA|Lynch|67490|Martinsburg
Branden|(596) 116-9956|P.O. Box 495, 6088 Id, St.|09/19/08|CT|Chapman|79325|Biloxi
Nigel|(512) 661-2638|269-8214 Id, Street|09/22/09|IN|Blanchard|34611|Nashville
Kenneth|(516) 268-4245|3671 Egestas St.|09/10/08|ID|Tate|21326|Ponce
Ocean|(499) 943-1057|3334 Nunc St.|07/28/08|MI|Logan|17508|Ruston
Colton|(208) 872-7622|684-779 A Street|01/06/09|NC|Kelley|49720|Montgomery
Shannon|(246) 466-2445|Ap #551-2293 Pellentesque St.|09/25/09|SC|Buckner|51476|Hopkinsville
Lareina|(941) 765-3010|Ap #811-9540 Donec Ave|12/09/09|MT|Thomas|27622|Seaford
Meredith|(140) 635-8123|Ap #655-5045 Curabitur St.|08/05/08|DE|Crawford|86739|Lawrenceville
Allen|(278) 883-8564|Ap #723-3968 Eros Av.|08/17/08|Illinois|Grant|16794|Huntington Park
Neve|(831) 849-7280|Ap #591-6391 Nam Street|04/09/09|FL|Walter|59311|Augusta
Sonia|(142) 835-9109|8856 Volutpat Street|05/02/08|CO|Whitley|11001|Palo Alto
Alexander|(681) 662-1904|Ap #620-9317 Nibh Avenue|06/23/09|UT|Grant|89250|Inglewood
Maxwell|(263) 211-3885|Ap #452-2833 Quis, Ave|06/06/09|WY|Horne|71809|Saint Albans
Emi|(687) 203-5256|159-2775 Eu Street|06/13/09|New Jersey|Knox|63510|Portland
Whilemina|(277) 425-1464|7279 Quam, Av.|02/14/10|Indiana|Herman|40291|Stevens Point
Flynn|(794) 495-1693|8589 Augue. St.|06/17/09|Virginia|Lott|08843|Fontana
Ishmael|(625) 452-4063|P.O. Box 606, 1725 Porttitor Av.|07/29/08|OH|Castillo|98858|Northampton
Illiana|(307) 759-3055|P.O. Box 851, 1666 Purus. Rd.|08/20/08|Utah|Cobb|42361|Citrus Heights
Keane|(701) 231-8078|907-2552 Proin Av.|09/13/08|CT|Collins|99313|Mequon
Jocelyn|(176) 546-7699|Ap #428-3478 Semper, St.|01/28/09|SD|Patterson|37057|Waterbury
Shoshana|(924) 421-0857|Ap #528-6626 Hendrerit. St.|12/22/08|Delaware|Bauer|82366|Bristol
Nita|(286) 179-4125|P.O. Box 927, 6381 Mauris St.|02/14/09|NM|Washington|29388|Oswego
Charissa|(532) 251-8597|5594 Enim St.|04/02/09|AZ|Cooley|98791|Auburn Hills
Sydnee|(596) 201-5330|Ap #531-9730 Turpis St.|11/19/08|NV|Campos|98067|Staunton
Jael|(705) 654-2754|3151 Quam Avenue|06/30/09|Alabama|Vincent|44963|Vernon
Indira|(452) 309-2547|Ap #522-1727 Sed, Ave|11/15/08|LA|Burke|90794|Dover
Tad|(258) 594-7146|P.O. Box 326, 9688 Tellus St.|11/21/09|SC|Ayala|89769|Rawlins
Gwendolyn|(926) 831-6810|382-7807 Lacus. Street|04/20/09|MI|Howard|88346|Galesburg
Callie|(328) 711-2944|Ap #664-306 Proin Road|02/06/10|Colorado|Payne|77005|Urbana
Hyatt|(967) 290-0621|Ap #436-8285 Lectus St.|03/11/10|Wyoming|Aguirre|53611|Hannibal
Carissa|(290) 696-3063|Ap #321-1159 Vivamus St.|08/10/08|UT|Morrison|40836|Corry
Abdul|(833) 953-0126|902-3991 Nibh Street|11/29/09|Missouri|Melendez|50935|Bartlesville
Colin|(974) 947-3426|1696 Ante Road|07/08/08|CT|Sampson|93156|Paducah
Moana|(602) 621-3618|688-285 Eu Road|01/26/10|Arkansas|Travis|93753|Blythe
Nayda|(973) 623-8969|P.O. Box 193, 6982 Torquent Street|11/21/08|Maine|Lee|43033|Hudson
Charde|(972) 669-9223|P.O. Box 168, 4643 Mollis. St.|08/30/08|DC|Alexander|93207|Nampa
Bradley|(295) 482-6496|8359 Sodales St.|10/06/09|CA|Franklin|14111|Barre
Keaton|(412) 924-9788|928-582 Quisque Road|01/02/10|Arkansas|Mullen|04656|Boulder Junction
Montana|(827) 468-6611|4751 Proin Av.|11/17/08|LA|Saunders|68322|Hartford
Remedios|(894) 962-1368|422-4101 Amet Street|11/20/09|Idaho|Marsh|63900|St. George
Ila|(307) 287-5738|Ap #841-9626 Vestibulum Ave|02/20/09|IA|Contreras|55971|Greensboro
Melyssa|(335) 775-4842|Ap #345-2374 Eleifend. Street|10/26/08|Rhode Island|Fields|36771|Fairfax
Ora|(840) 574-0416|P.O. Box 278, 4294 A, St.|07/01/09|South Carolina|Maynard|46409|Aguadilla
Rhea|(710) 505-5530|P.O. Box 357, 7549 Penatibus Av.|10/26/08|Maine|Mueller|73388|Walla Walla
Destiny|(892) 664-7142|Ap #798-7203 Congue. St.|04/15/08|Wyoming|Chambers|31818|Dayton
Ignatius|(703) 982-2596|P.O. Box 621, 8740 Molestie St.|08/12/09|Georgia|Wiley|69783|Tacoma
Orli|(579) 949-2485|Ap #434-7316 Dis Rd.|12/05/09|Nevada|Koch|51718|Richmond
Summer|(617) 454-3493|P.O. Box 355, 564 Egestas Road|12/04/08|SC|Hicks|97972|Boulder Junction
Kirby|(493) 354-9904|699-2466 Eget, Rd.|03/10/10|VA|Savage|32072|Riverside
Miriam|(997) 536-8522|105-5220 Nullam St.|07/07/09|Maryland|Wynn|05078|Duluth
Oleg|(644) 344-0976|756 Mauris Road|07/01/08|Delaware|Thomas|03804|Waltham
Leonard|(564) 739-1826|Ap #186-9392 Sit Street|02/23/09|MI|Jones|08268|Melrose
Kane|(904) 550-9249|P.O. Box 193, 5905 In Street|10/17/09|Oklahoma|Gordon|12642|Idabel
Noelani|(922) 422-8889|750-5961 Aliquet St.|08/14/09|Vermont|Ferrell|49650|Topeka
Brianna|(615) 308-5408|Ap #397-6647 Quis, Av.|08/03/09|OR|Harmon|20754|Peabody
Derek|(171) 233-6634|Ap #126-2233 Dictum. Av.|02/04/10|Oklahoma|Bush|25877|Winnemucca
Ivor|(441) 649-8621|800-1263 Sapien Avenue|03/29/08|LA|Lee|80933|Kingston
Delilah|(122) 567-6215|1885 Cursus. Av.|05/26/08|South Dakota|Snyder|92040|Visalia
Kyla|(929) 450-6753|Ap #699-8176 Hendrerit St.|11/18/09|MN|Sharp|54344|Nenana
Karleigh|(964) 567-4024|285 Dignissim St.|12/23/08|DC|Davis|26602|Coral Springs
Kylynn|(669) 319-8544|Ap #669-2185 Nullam Av.|01/18/10|Oklahoma|Elliott|38431|Coatesville
Adrienne|(242) 708-7296|P.O. Box 668, 9375 A, Rd.|01/19/10|DC|Boyer|22655|Marlborough
Alyssa|(962) 986-1669|473 Felis Avenue|11/14/08|NH|Patton|98002|Half Moon Bay
Garth|(999) 598-1179|Ap #520-9209 Integer Avenue|04/29/08|MD|Wiley|40190|Bay St. Louis
Ayanna|(234) 523-4733|P.O. Box 901, 2838 Nunc Rd.|12/23/08|MN|Waters|18363|Kingston
Ruby|(458) 472-8252|Ap #975-2342 Vestibulum Street|02/03/09|AK|Fernandez|50091|Tok
Gavin|(827) 653-5907|168-9286 Ac Street|06/21/08|NJ|Rollins|99804|Ventura
Blair|(500) 882-6579|7455 Lacus. Av.|12/09/09|Idaho|Pate|53039|Athens
Deirdre|(817) 722-8207|P.O. Box 316, 5624 Adipiscing Rd.|03/31/09|AL|Adkins|70395|Overland Park
Alan|(950) 241-9131|P.O. Box 765, 412 Tortor. Rd.|04/18/09|Wyoming|Foley|28296|East St. Louis
Emery|(689) 675-6898|P.O. Box 908, 1631 Tristique St.|11/07/08|Alaska|Russo|80013|Tonawanda
Hannah|(356) 604-5611|P.O. Box 219, 8431 Aenean St.|11/23/09|KS|Hobbs|73852|Wilkes-Barre
Lavinia|(334) 769-3207|9664 Elit, Ave|09/13/09|Alabama|Cook|35576|Greensburg
Beverly|(583) 546-8934|Ap #994-4863 Gravida. Ave|11/18/08|OR|Lara|46039|Macon
Taylor|(712) 861-1157|P.O. Box 468, 4456 Interdum. Rd.|03/17/10|Connecticut|Francis|17291|Scottsdale
Yetta|(574) 456-6327|402-3336 Praesent Road|12/03/09|Mississippi|Glass|87659|Grand Junction
Quynn|(955) 903-4490|932-8473 Non Street|04/23/08|IA|Alvarez|67596|Gilette
Kieran|(228) 924-5149|5458 Enim, Avenue|04/20/09|Delaware|Alston|53155|Seal Beach
Elton|(179) 431-7209|P.O. Box 236, 5460 Lacus. Rd.|01/26/10|Colorado|Blevins|59254|Marlborough
Mona|(905) 312-2553|297-4616 Amet Av.|11/12/08|ID|Larson|79894|San Dimas
Brock|(926) 627-1583|363 Turpis. Rd.|01/29/10|SC|Adkins|32880|Mission Viejo
Ria|(942) 761-9271|Ap #917-3235 Lacus. Avenue|10/31/09|Maine|Hoffman|08131|Jonesboro
Channing|(147) 932-1083|P.O. Box 259, 1660 Imperdiet St.|07/18/08|Texas|Gentry|46667|Louisville
Ross|(172) 387-9712|P.O. Box 222, 2053 Lorem. St.|07/25/09|Hawaii|Harrison|24549|Danville
Chantale|(596) 494-6223|512-7558 Ipsum Avenue|10/16/08|NV|Sharp|12134|North Chicago
Whoopi|(951) 211-8412|500-5786 Nec Road|05/04/08|Vermont|Browning|59331|Monroe
Kimberly|(501) 497-6087|1136 Mi Road|10/30/09|Florida|Sutton|87703|Hermosa Beach
acqueline|(771) 336-2402|195-4069 Posuere Ave|02/26/10|MI|Fisher|48727|Miami
Abel|(783) 751-8844|Ap #396-1926 Donec Avenue|01/10/09|New York|Mayo|78162|Visalia
Hermione|(569) 538-8139|464-3182 Fusce St.|07/31/08|VA|Malone|28605|Latrobe
Chase|(271) 627-5614|5176 Ridiculus Street|08/21/08|AL|Meyer|35986|Des Moines
Olympia|(333) 755-5617|602-1163 Ut Ave|04/28/08|Tennessee|Hobbs|93626|Corpus Christi
Chelsea|(684) 317-6821|193-2673 Quisque Av.|11/11/09|MO|Boone|69868|Covington
Geraldine|(285) 343-7744|Ap #572-7309 Porttitor Road|03/15/10|South Carolina|Sharp|36872|South Gate

